NORAD_CAT_ID,OBJECT_NAME,OBJECT_TYPE,EPOCH,MEAN_MOTION,ECCENTRICITY,INCLINATION,RA_OF_ASC_NODE,ARG_OF_PERICENTER,MEAN_ANOMALY,BSTAR,MEAN_MOTION_DOT,MEAN_MOTION_DDOT,TLE_LINE0,TLE_LINE1,TLE_LINE2,SEMIMAJOR_AXIS,PERIOD,APOGEE,PERIGEE,DECAYED
53165.0,STARLINK-4090,PAYLOAD,2024-05-28 03:25:45,15.08846545,0.000118,53.2161,204.5392,87.3749,272.7378,4.5232e-05,4.32e-06,0.0,0 STARLINK-4090,1 53165U 22083AK  24149.14288858  .00000432  00000-0  45232-4 0  9998,2 53165  53.2161 204.5392 0001180  87.3749 272.7378 15.08846545103784,6917.86,95.437,540.542,538.909,0.0
53165.0,STARLINK-4090,PAYLOAD,2024-05-28 11:22:40,15.08848338,0.0001158,53.2159,203.0519,87.2567,272.8558,5.2602e-05,5.5e-06,0.0,0 STARLINK-4090,1 53165U 22083AK  24149.47408550  .00000550  00000-0  52602-4 0  9997,2 53165  53.2159 203.0519 0001158  87.2567 272.8558 15.08848338103208,6917.855,95.437,540.521,538.919,0.0
53165.0,STARLINK-4090,PAYLOAD,2024-05-29 12:48:51,15.08843554,0.0001224,53.2157,198.2945,81.7629,278.3502,1.4841e-05,-5.2e-07,0.0,0 STARLINK-4090,1 53165U 22083AK  24150.53392645 -.00000052  00000-0  14841-4 0  9994,2 53165  53.2157 198.2945 0001224  81.7629 278.3502 15.08843554103997,6917.87,95.437,540.581,538.888,0.0
53165.0,STARLINK-4090,PAYLOAD,2024-05-30 09:28:51,15.08842972,0.0001234,53.2153,194.4284,82.8859,277.2273,1.6322e-05,-2.8e-07,0.0,0 STARLINK-4090,1 53165U 22083AK  24151.39504498 -.00000028  00000-0  16322-4 0  9999,2 53165  53.2153 194.4284 0001234  82.8859 277.2273 15.08842972103496,6917.871,95.437,540.59,538.883,0.0
53165.0,STARLINK-4090,PAYLOAD,2024-05-31 02:58:06,15.08840361,0.0001281,53.2154,191.1573,89.3392,270.7747,4.8736e-05,4.88e-06,0.0,0 STARLINK-4090,1 53165U 22083AK  24152.12368468  .00000488  00000-0  48736-4 0  9999,2 53165  53.2154 191.1573 0001281  89.3392 270.7747 15.08840361104235,6917.879,95.438,540.63,538.858,0.0
53165.0,STARLINK-4090,PAYLOAD,2024-05-31 12:30:25,15.08838926,0.000128,53.2157,189.3728,96.9839,263.1298,3.0867e-05,2.03e-06,0.0,0 STARLINK-4090,1 53165U 22083AK  24152.52112609  .00000203  00000-0  30867-4 0  9998,2 53165  53.2157 189.3728 0001280  96.9839 263.1298 15.08838926103665,6917.884,95.438,540.634,538.863,0.0
53165.0,STARLINK-4090,PAYLOAD,2024-06-01 02:48:53,15.08835794,0.000131,53.2159,186.6969,92.041,268.0732,2.5278e-05,1.14e-06,0.0,0 STARLINK-4090,1 53165U 22083AK  24153.11728877  .00000114  00000-0  25278-4 0  9995,2 53165  53.2159 186.6969 0001310  92.0410 268.0732 15.08835794104387,6917.893,95.438,540.664,538.852,0.0
53165.0,STARLINK-4090,PAYLOAD,2024-06-01 09:10:26,15.0883509,0.0001304,53.2157,185.5077,91.3101,268.8041,1.6342e-05,-2.8e-07,0.0,0 STARLINK-4090,1 53165U 22083AK  24153.38225020 -.00000028  00000-0  16342-4 0  9993,2 53165  53.2157 185.5077 0001304  91.3101 268.8041 15.08835090103799,6917.895,95.438,540.662,538.858,0.0
53165.0,STARLINK-4090,PAYLOAD,2024-06-02 09:01:13,15.08833322,0.0001304,53.2156,181.0475,91.2738,268.8403,2.0727e-05,4.2e-07,0.0,0 STARLINK-4090,1 53165U 22083AK  24154.37585446  .00000042  00000-0  20727-4 0  9991,2 53165  53.2156 181.0475 0001304  91.2738 268.8403 15.08833322104571,6917.901,95.438,540.668,538.864,0.0
53165.0,STARLINK-4090,PAYLOAD,2024-06-03 10:27:23,15.08837333,0.0001318,53.2153,176.2891,87.0097,273.1046,7.7228e-05,9.41e-06,0.0,0 STARLINK-4090,1 53165U 22083AK  24155.43569430  .00000941  00000-0  77228-4 0  9990,2 53165  53.2153 176.2891 0001318  87.0097 273.1046 15.08837333104738,6917.889,95.438,540.665,538.842,0.0
53165.0,STARLINK-4090,PAYLOAD,2024-06-03 18:24:19,15.08841055,0.0001289,53.2151,174.802,86.1352,273.9787,9.7606e-05,1.266e-05,0.0,0 STARLINK-4090,1 53165U 22083AK  24155.76689171  .00001266  00000-0  97606-4 0  9994,2 53165  53.2151 174.8020 0001289  86.1352 273.9787 15.08841055104157,6917.877,95.437,540.634,538.85,0.0
53165.0,STARLINK-4090,PAYLOAD,2024-06-04 10:18:10,15.08841487,0.0001308,53.2151,171.8281,85.8545,274.2596,8.234e-05,1.023e-05,0.0,0 STARLINK-4090,1 53165U 22083AK  24156.42929244  .00001023  00000-0  82340-4 0  9996,2 53165  53.2151 171.8281 0001308  85.8545 274.2596 15.08841487104257,6917.876,95.437,540.646,538.836,0.0
53165.0,STARLINK-4090,PAYLOAD,2024-06-04 18:15:06,15.08844772,0.0001343,53.2155,170.3421,87.7612,272.3534,0.00010186,1.334e-05,0.0,0 STARLINK-4090,1 53165U 22083AK  24156.76048963  .00001334  00000-0  10186-3 0  9996,2 53165  53.2155 170.3421 0001343  87.7612 272.3534 15.08844772104932,6917.866,95.437,540.66,538.802,0.0
53165.0,STARLINK-4090,PAYLOAD,2024-06-05 05:22:48,15.08838477,0.0001377,53.215,168.2615,86.5475,273.5675,6.3398e-05,7.21e-06,0.0,0 STARLINK-4090,1 53165U 22083AK  24157.22417390  .00000721  00000-0  63398-4 0  9995,2 53165  53.2150 168.2615 0001377  86.5475 273.5675 15.08838477105002,6917.885,95.438,540.703,538.797,0.0
53165.0,STARLINK-4090,PAYLOAD,2024-06-05 08:33:34,15.088404,0.0001388,53.2153,167.6668,85.803,274.3121,5.6488e-05,6.11e-06,0.0,0 STARLINK-4090,1 53165U 22083AK  24157.35665288  .00000611  00000-0  56488-4 0  9990,2 53165  53.2153 167.6668 0001388  85.8030 274.3121 15.08840400104392,6917.879,95.438,540.704,538.784,0.0
53165.0,STARLINK-4090,PAYLOAD,2024-06-05 18:05:53,15.08844552,0.0001334,53.2153,165.8814,91.2119,268.9026,5.8022e-05,6.36e-06,0.0,0 STARLINK-4090,1 53165U 22083AK  24157.75408911  .00000636  00000-0  58022-4 0  9995,2 53165  53.2153 165.8814 0001334  91.2119 268.9026 15.08844552104457,6917.866,95.437,540.654,538.809,0.0
53165.0,STARLINK-4090,PAYLOAD,2024-06-06 06:48:58,15.08839072,0.0001411,53.216,163.5013,91.254,268.8614,-2.8552e-05,-7.42e-06,0.0,0 STARLINK-4090,1 53165U 22083AK  24158.28401423 -.00000742  00000-0 -28552-4 0  9990,2 53165  53.2160 163.5013 0001411  91.2540 268.8614 15.08839072105167,6917.883,95.438,540.724,538.772,0.0
53165.0,STARLINK-4090,PAYLOAD,2024-06-07 00:18:13,15.08839117,0.0001435,53.2165,160.2311,92.5823,267.5334,2.4335e-05,9.9e-07,0.0,0 STARLINK-4090,1 53165U 22083AK  24159.01265252  .00000099  00000-0  24335-4 0  9998,2 53165  53.2165 160.2311 0001435  92.5823 267.5334 15.08839117104648,6917.883,95.438,540.741,538.755,0.0
53165.0,STARLINK-4090,PAYLOAD,2024-06-08 04:55:09,15.08839395,0.0001454,53.2169,154.8782,92.8844,267.2314,6.293e-05,7.14e-06,0.0,0 STARLINK-4090,1 53165U 22083AK  24160.20497138  .00000714  00000-0  62930-4 0  9998,2 53165  53.2169 154.8782 0001454  92.8844 267.2314 15.08839395105453,6917.882,95.438,540.753,538.741,0.0
53165.0,STARLINK-4090,PAYLOAD,2024-06-08 06:30:32,15.08839996,0.0001428,53.2168,154.5813,91.4043,268.7113,6.9936e-05,8.25e-06,0.0,0 STARLINK-4090,1 53165U 22083AK  24160.27121091  .00000825  00000-0  69936-4 0  9993,2 53165  53.2168 154.5813 0001428  91.4043 268.7113 15.08839996104832,6917.88,95.438,540.733,538.758,0.0
53165.0,STARLINK-4090,PAYLOAD,2024-06-08 16:02:51,15.08842818,0.0001419,53.217,152.7974,90.9693,269.1461,7.0462e-05,8.34e-06,0.0,0 STARLINK-4090,1 53165U 22083AK  24160.66864878  .00000834  00000-0  70462-4 0  9999,2 53165  53.2170 152.7974 0001419  90.9693 269.1461 15.08842818104892,6917.872,95.437,540.718,538.755,0.0
53165.0,STARLINK-4090,PAYLOAD,2024-06-09 04:45:57,15.08833031,0.0001395,53.2166,150.4183,83.6787,276.4364,8.1838e-06,-1.58e-06,0.0,0 STARLINK-4090,1 53165U 22083AK  24161.19857875 -.00000158  00000-0  81838-5 0  9997,2 53165  53.2166 150.4183 0001395  83.6787 276.4364 15.08833031105600,6917.902,95.438,540.732,538.802,0.0
53165.0,STARLINK-4090,PAYLOAD,2024-06-09 06:21:20,15.08834996,0.0001393,53.2168,150.1215,86.7397,273.3754,1.897e-05,1.4e-07,0.0,0 STARLINK-4090,1 53165U 22083AK  24161.26481736  .00000014  00000-0  18970-4 0  9990,2 53165  53.2168 150.1215 0001393  86.7397 273.3754 15.08834996104984,6917.896,95.438,540.724,538.797,0.0
53165.0,STARLINK-4090,PAYLOAD,2024-06-09 15:53:38,15.08838793,0.0001431,53.2171,148.3372,87.315,272.8006,4.2861e-05,3.94e-06,0.0,0 STARLINK-4090,1 53165U 22083AK  24161.66225502  .00000394  00000-0  42861-4 0  9998,2 53165  53.2171 148.3372 0001431  87.3150 272.8006 15.08838793105678,6917.884,95.438,540.739,538.759,0.0
53165.0,STARLINK-4090,PAYLOAD,2024-06-10 06:12:07,15.08837303,0.0001489,53.2175,145.6626,95.016,265.1002,1.8248e-05,2e-08,0.0,0 STARLINK-4090,1 53165U 22083AK  24162.25841821  .00000002  00000-0  18248-4 0  9990,2 53165  53.2175 145.6626 0001489  95.0160 265.1002 15.08837303105132,6917.889,95.438,540.784,538.724,0.0
53165.0,STARLINK-4090,PAYLOAD,2024-06-10 15:44:25,15.08842421,0.0001501,53.2179,143.8782,91.2662,268.8503,4.4486e-05,4.2e-06,0.0,0 STARLINK-4090,1 53165U 22083AK  24162.65585463  .00000420  00000-0  44486-4 0  9998,2 53165  53.2179 143.8782 0001501  91.2662 268.8503 15.08842421105198,6917.873,95.437,540.776,538.7,0.0
53165.0,STARLINK-4090,PAYLOAD,2024-06-11 04:27:31,15.08832399,0.0001515,53.2176,141.4995,86.6549,273.4616,4.9727e-05,5.03e-06,0.0,0 STARLINK-4090,1 53165U 22083AK  24163.18578281  .00000503  00000-0  49727-4 0  9992,2 53165  53.2176 141.4995 0001515  86.6549 273.4616 15.08832399105901,6917.904,95.438,540.817,538.721,0.0
53165.0,STARLINK-4090,PAYLOAD,2024-06-11 07:38:17,15.0883448,0.000143,53.2172,140.9041,83.3114,276.8041,7.5637e-05,9.16e-06,0.0,0 STARLINK-4090,1 53165U 22083AK  24163.31826115  .00000916  00000-0  75637-4 0  9996,2 53165  53.2172 140.9041 0001430  83.3114 276.8041 15.08834480105295,6917.897,95.438,540.752,538.773,0.0
53165.0,STARLINK-4090,PAYLOAD,2024-06-12 05:53:42,15.08832747,0.0001359,53.2173,136.7421,89.7322,270.3826,3.4434e-05,2.6e-06,0.0,0 STARLINK-4090,1 53165U 22083AK  24164.24562650  .00000260  00000-0  34434-4 0  9992,2 53165  53.2173 136.7421 0001359  89.7322 270.3826 15.08832747105432,6917.903,95.438,540.708,538.827,0.0
53165.0,STARLINK-4090,PAYLOAD,2024-06-12 07:29:05,15.08833372,0.0001366,53.2173,136.4446,89.5711,270.5438,4.538e-05,4.34e-06,0.0,0 STARLINK-4090,1 53165U 22083AK  24164.31186599  .00000434  00000-0  45380-4 0  9999,2 53165  53.2173 136.4446 0001366  89.5711 270.5438 15.08833372106071,6917.901,95.438,540.711,538.821,0.0
